[{"OBJECT_NAME":"DONGPO 08","OBJECT_ID":"2022-167E","EPOCH":"2026-03-09T22:57:52.742880","MEAN_MOTION":15.31542505,"ECCENTRICITY":0.00092155,"INCLINATION":97.6764,"RA_OF_ASC_NODE":233.3854,"ARG_OF_PERICENTER":153.9158,"MEAN_ANOMALY":206.2548,"EPHEMERIS_TYPE":0,"CLASSIFICATION_TYPE":"U","NORAD_CAT_ID":54686,"ELEMENT_SET_NO":999,"REV_AT_EPOCH":18012,"BSTAR":0.0004734784,"MEAN_MOTION_DOT":0.0001437,"MEAN_MOTION_DDOT":0},{"OBJECT_NAME":"STARLINK-30576","OBJECT_ID":"2023-158Q","EPOCH":"2026-03-09T06:07:05.038752","MEAN_MOTION":15.27569358,"ECCENTRICITY":0.000102,"INCLINATION":43.0047,"RA_OF_ASC_NODE":29.4883,"ARG_OF_PERICENTER":269.0144,"MEAN_ANOMALY":91.0591,"EPHEMERIS_TYPE":0,"CLASSIFICATION_TYPE":"U","NORAD_CAT_ID":58065,"ELEMENT_SET_NO":999,"REV_AT_EPOCH":13350,"BSTAR":6.1525351e-5,"MEAN_MOTION_DOT":1.431e-5,"MEAN_MOTION_DDOT":0}]
